{"type": "FeatureCollection", "features": [ {"type": "Feature", "properties": {"norad_id": 33650, "name": "FENGYUN 1C DEB", "group": "fengyun-1c-debris", "lat": 45.303729191756986, "lon": 147.4370347970643, "alt_km": 823.9671413004598, "timestamp": "2025-12-17T17:50:19.537659+00:00", "meta": {"OBJECT_NAME": "FENGYUN 1C DEB", "OBJECT_ID": "1999-025DEK", "EPOCH": "2025-12-16T17:25:23.418336", "MEAN_MOTION": 13.89200794, "ECCENTRICITY": 0.01497023, "INCLINATION": 98.9866, "RA_OF_ASC_NODE": 155.6582, "ARG_OF_PERICENTER": 68.1425, "MEAN_ANOMALY": 293.558, "EPHEMERIS_TYPE": 0, "CLASSIFICATION_TYPE": "U", "NORAD_CAT_ID": 33650, "ELEMENT_SET_NO": 999, "REV_AT_EPOCH": 68864, "BSTAR": 0.00064639635, "MEAN_MOTION_DOT": 8.18e-06, "MEAN_MOTION_DDOT": 0}, "tle": {"line1": "1 33650U 99025DEK 25350.72596549  .00000818  00000+0  64640-3 0  9993", "line2": "2 33650  98.9866 155.6582 0149702  68.1425 293.5580 13.89200794688643"}}, "geometry": {"type": "Point", "coordinates": [147.4370347970643, 45.303729191756986]}}, {"type": "Feature", "properties": {"norad_id": 33651, "name": "FENGYUN 1C DEB", "group": "fengyun-1c-debris", "lat": 22.068970721274777, "lon": -139.23693673939695, "alt_km": 862.7135631269166, "timestamp": "2025-12-17T17:50:19.537669+00:00", "meta": {"OBJECT_NAME": "FENGYUN 1C DEB", "OBJECT_ID": "1999-025DEL", "EPOCH": "2025-12-15T22:50:33.685728", "MEAN_MOTION": 14.2035784, "ECCENTRICITY": 0.01176515, "INCLINATION": 98.6565, "RA_OF_ASC_NODE": 35.4683, "ARG_OF_PERICENTER": 44.8101, "MEAN_ANOMALY": 316.2505, "EPHEMERIS_TYPE": 0, "CLASSIFICATION_TYPE": "U", "NORAD_CAT_ID": 33651, "ELEMENT_SET_NO": 999, "REV_AT_EPOCH": 64317, "BSTAR": 0.00014338684, "MEAN_MOTION_DOT": 2.86e-06, "MEAN_MOTION_DDOT": 0}, "tle": {"line1": "1 33651U 99025DEL 25349.95177877  .00000286  00000+0  14339-3 0  9995", "line2": "2 33651  98.6565  35.4683 0117651  44.8101 316.2505 14.20357840643174"}}, "geometry": {"type": "Point", "coordinates": [-139.23693673939695, 22.068970721274777]}}, {"type": "Feature", "properties": {"norad_id": 33655, "name": "FENGYUN 1C DEB", "group": "fengyun-1c-debris", "lat": 14.350822257705637, "lon": -120.10011913929509, "alt_km": 607.0735551269399, "timestamp": "2025-12-17T17:50:19.537680+00:00", "meta": {"OBJECT_NAME": "FENGYUN 1C DEB", "OBJECT_ID": "1999-025DEQ", "EPOCH": "2025-12-16T10:38:27.470400", "MEAN_MOTION": 14.97871729, "ECCENTRICITY": 0.00471934, "INCLINATION": 98.802, "RA_OF_ASC_NODE": 56.1639, "ARG_OF_PERICENTER": 346.1798, "MEAN_ANOMALY": 13.8126, "EPHEMERIS_TYPE": 0, "CLASSIFICATION_TYPE": "U", "NORAD_CAT_ID": 33655, "ELEMENT_SET_NO": 999, "REV_AT_EPOCH": 96613, "BSTAR": 0.0011548841, "MEAN_MOTION_DOT": 0.00013851, "MEAN_MOTION_DDOT": 0}, "tle": {"line1": "1 33655U 99025DEQ 25350.44337350  .00013851  00000+0  11549-2 0  9990", "line2": "2 33655  98.8020  56.1639 0047193 346.1798  13.8126 14.97871729966134"}}, "geometry": {"type": "Point", "coordinates": [-120.10011913929509, 14.350822257705637]}}, {"type": "Feature", "properties": {"norad_id": 33656, "name": "FENGYUN 1C DEB", "group": "fengyun-1c-debris", "lat": 12.219900094551518, "lon": -17.19795831654277, "alt_km": 752.2415585740373, "timestamp": "2025-12-17T17:50:19.537690+00:00", "meta": {"OBJECT_NAME": "FENGYUN 1C DEB", "OBJECT_ID": "1999-025DER", "EPOCH": "2025-12-08T19:25:37.486560", "MEAN_MOTION": 14.2271982, "ECCENTRICITY": 0.00906449, "INCLINATION": 98.5783, "RA_OF_ASC_NODE": 335.9755, "ARG_OF_PERICENTER": 42.7826, "MEAN_ANOMALY": 318.0362, "EPHEMERIS_TYPE": 0, "CLASSIFICATION_TYPE": "U", "NORAD_CAT_ID": 33656, "ELEMENT_SET_NO": 999, "REV_AT_EPOCH": 62653, "BSTAR": 0.00077976866, "MEAN_MOTION_DOT": 1.78e-05, "MEAN_MOTION_DDOT": 0}, "tle": {"line1": "1 33656U 99025DER 25342.80946165  .00001780  00000+0  77977-3 0  9998", "line2": "2 33656  98.5783 335.9755 0090644  42.7826 318.0362 14.22719820626535"}}, "geometry": {"type": "Point", "coordinates": [-17.19795831654277, 12.219900094551518]}}, {"type": "Feature", "properties": {"norad_id": 33658, "name": "FENGYUN 1C DEB", "group": "fengyun-1c-debris", "lat": 71.30225279675939, "lon": 114.97694412603452, "alt_km": 1031.1039840669591, "timestamp": "2025-12-17T17:50:19.537701+00:00", "meta": {"OBJECT_NAME": "FENGYUN 1C DEB", "OBJECT_ID": "1999-025DET", "EPOCH": "2025-12-13T16:31:23.450304", "MEAN_MOTION": 13.62374547, "ECCENTRICITY": 0.02832522, "INCLINATION": 99.5631, "RA_OF_ASC_NODE": 140.8704, "ARG_OF_PERICENTER": 178.8756, "MEAN_ANOMALY": 181.3083, "EPHEMERIS_TYPE": 0, "CLASSIFICATION_TYPE": "U", "NORAD_CAT_ID": 33658, "ELEMENT_SET_NO": 999, "REV_AT_EPOCH": 58152, "BSTAR": 0.0040903912, "MEAN_MOTION_DOT": 4.108e-05, "MEAN_MOTION_DDOT": 0}, "tle": {"line1": "1 33658U 99025DET 25347.68846586  .00004108  00000+0  40904-2 0  9993", "line2": "2 33658  99.5631 140.8704 0283252 178.8756 181.3083 13.62374547581525"}}, "geometry": {"type": "Point", "coordinates": [114.97694412603452, 71.30225279675939]}}, {"type": "Feature", "properties": {"norad_id": 33660, "name": "FENGYUN 1C DEB", "group": "fengyun-1c-debris", "lat": -16.53610081583243, "lon": 80.00796316879965, "alt_km": 861.7145707817108, "timestamp": "2025-12-17T17:50:19.537711+00:00", "meta": {"OBJECT_NAME": "FENGYUN 1C DEB", "OBJECT_ID": "1999-025DEV", "EPOCH": "2025-12-17T05:33:08.970048", "MEAN_MOTION": 13.9177663, "ECCENTRICITY": 0.01097717, "INCLINATION": 98.6566, "RA_OF_ASC_NODE": 262.1224, "ARG_OF_PERICENTER": 233.6391, "MEAN_ANOMALY": 280.1538, "EPHEMERIS_TYPE": 0, "CLASSIFICATION_TYPE": "U", "NORAD_CAT_ID": 33660, "ELEMENT_SET_NO": 999, "REV_AT_EPOCH": 91126, "BSTAR": 0.00042795198, "MEAN_MOTION_DOT": 5.31e-06, "MEAN_MOTION_DDOT": 0}, "tle": {"line1": "1 33660U 99025DEV 25351.23135382  .00000531  00000+0  42795-3 0  9994", "line2": "2 33660  98.6566 262.1224 0109771 233.6391 280.1538 13.91776630911260"}}, "geometry": {"type": "Point", "coordinates": [80.00796316879965, -16.53610081583243]}}, {"type": "Feature", "properties": {"norad_id": 33663, "name": "FENGYUN 1C DEB", "group": "fengyun-1c-debris", "lat": 72.61491024594768, "lon": -166.70927895853816, "alt_km": 694.6018363909243, "timestamp": "2025-12-17T17:50:19.537721+00:00", "meta": {"OBJECT_NAME": "FENGYUN 1C DEB", "OBJECT_ID": "1999-025DEY", "EPOCH": "2025-12-14T05:36:34.659936", "MEAN_MOTION": 14.62128148, "ECCENTRICITY": 0.0081413, "INCLINATION": 98.8858, "RA_OF_ASC_NODE": 339.5398, "ARG_OF_PERICENTER": 9.0436, "MEAN_ANOMALY": 351.2208, "EPHEMERIS_TYPE": 0, "CLASSIFICATION_TYPE": "U", "NORAD_CAT_ID": 33663, "ELEMENT_SET_NO": 999, "REV_AT_EPOCH": 64224, "BSTAR": 0.0064692056, "MEAN_MOTION_DOT": 0.00034209, "MEAN_MOTION_DDOT": 0}, "tle": {"line1": "1 33663U 99025DEY 25348.23373449  .00034209  00000+0  64692-2 0  9999", "line2": "2 33663  98.8858 339.5398 0081413   9.0436 351.2208 14.62128148642244"}}, "geometry": {"type": "Point", "coordinates": [-166.70927895853816, 72.61491024594768]}}, {"type": "Feature", "properties": {"norad_id": 33664, "name": "FENGYUN 1C DEB", "group": "fengyun-1c-debris", "lat": 21.10598794254714, "lon": 136.89164081125153, "alt_km": 761.139051006583, "timestamp": "2025-12-17T17:50:19.537732+00:00", "meta": {"OBJECT_NAME": "FENGYUN 1C DEB", "OBJECT_ID": "1999-025DEZ", "EPOCH": "2025-12-16T09:14:39.277248", "MEAN_MOTION": 14.03996673, "ECCENTRICITY": 0.01639604, "INCLINATION": 98.7014, "RA_OF_ASC_NODE": 138.9794, "ARG_OF_PERICENTER": 29.8998, "MEAN_ANOMALY": 331.1413, "EPHEMERIS_TYPE": 0, "CLASSIFICATION_TYPE": "U", "NORAD_CAT_ID": 33664, "ELEMENT_SET_NO": 999, "REV_AT_EPOCH": 90790, "BSTAR": 0.00017695618, "MEAN_MOTION_DOT": 2.74e-06, "MEAN_MOTION_DDOT": 0}, "tle": {"line1": "1 33664U 99025DEZ 25350.38517682  .00000274  00000+0  17696-3 0  9996", "line2": "2 33664  98.7014 138.9794 0163960  29.8998 331.1413 14.03996673907903"}}, "geometry": {"type": "Point", "coordinates": [136.89164081125153, 21.10598794254714]}}, {"type": "Feature", "properties": {"norad_id": 33665, "name": "FENGYUN 1C DEB", "group": "fengyun-1c-debris", "lat": 46.87441453269031, "lon": -60.99384440172186, "alt_km": 672.9774487305804, "timestamp": "2025-12-17T17:50:19.537741+00:00", "meta": {"OBJECT_NAME": "FENGYUN 1C DEB", "OBJECT_ID": "1999-025DFA", "EPOCH": "2025-12-17T03:34:06.975840", "MEAN_MOTION": 14.03661486, "ECCENTRICITY": 0.04556553, "INCLINATION": 99.0213, "RA_OF_ASC_NODE": 108.6485, "ARG_OF_PERICENTER": 79.9129, "MEAN_ANOMALY": 285.3109, "EPHEMERIS_TYPE": 0, "CLASSIFICATION_TYPE": "U", "NORAD_CAT_ID": 33665, "ELEMENT_SET_NO": 999, "REV_AT_EPOCH": 92653, "BSTAR": 0.00039859369, "MEAN_MOTION_DOT": 1.541e-05, "MEAN_MOTION_DDOT": 0}, "tle": {"line1": "1 33665U 99025DFA 25351.14869185  .00001541  00000+0  39859-3 0  9993", "line2": "2 33665  99.0213 108.6485 0455655  79.9129 285.3109 14.03661486926530"}}, "geometry": {"type": "Point", "coordinates": [-60.99384440172186, 46.87441453269031]}}, {"type": "Feature", "properties": {"norad_id": 33673, "name": "FENGYUN 1C DEB", "group": "fengyun-1c-debris", "lat": -60.99711463763727, "lon": 55.89680687962505, "alt_km": 911.2708365150156, "timestamp": "2025-12-17T17:50:19.537752+00:00", "meta": {"OBJECT_NAME": "FENGYUN 1C DEB", "OBJECT_ID": "1999-025DFJ", "EPOCH": "2025-12-14T22:10:11.155872", "MEAN_MOTION": 13.95539618, "ECCENTRICITY": 0.01078755, "INCLINATION": 99.3438, "RA_OF_ASC_NODE": 35.7625, "ARG_OF_PERICENTER": 218.3859, "MEAN_ANOMALY": 320.4406, "EPHEMERIS_TYPE": 0, "CLASSIFICATION_TYPE": "U", "NORAD_CAT_ID": 33673, "ELEMENT_SET_NO": 999, "REV_AT_EPOCH": 89932, "BSTAR": 0.00032222239, "MEAN_MOTION_DOT": 4.13e-06, "MEAN_MOTION_DDOT": 0}, "tle": {"line1": "1 33673U 99025DFJ 25348.92374023  .00000413  00000+0  32222-3 0  9990", "line2": "2 33673  99.3438  35.7625 0107875 218.3859 320.4406 13.95539618899322"}}, "geometry": {"type": "Point", "coordinates": [55.89680687962505, -60.99711463763727]}}]}